{
  "type": "FeatureCollection",
  "features": [
    {
      "type": "Feature",
      "properties": {
        "norad_id": 44231,
        "name": "BEIDOU-2 G8 (C01)",
        "group": "gnss",
        "lat": 1.5468135202582685,
        "lon": -177.463409596181,
        "alt_km": 35815.93761192083,
        "timestamp": "2025-12-04T21:36:16.116959+00:00",
        "meta_object_name": "BEIDOU-2 G8 (C01)",
        "meta_object_id": "2019-027A",
        "meta_epoch": "2025-12-04T14:24:53.154144",
        "meta_mean_motion": 1.0026982,
        "meta_eccentricity": 0.0008405,
        "meta_inclination": 1.64,
        "meta_ra_of_asc_node": 74.7069,
        "meta_arg_of_pericenter": 254.6676,
        "meta_mean_anomaly": 105.0853,
        "meta_ephemeris_type": 0,
        "meta_classification_type": "U",
        "meta_norad_cat_id": 44231,
        "meta_element_set_no": 999,
        "meta_rev_at_epoch": 2412,
        "meta_bstar": 0,
        "meta_mean_motion_dot": -2.33e-06,
        "meta_mean_motion_ddot": 0,
        "tle_line1": "1 44231U 19027A   25338.60061521 -.00000233  00000+0  00000+0 0  9992",
        "tle_line2": "2 44231   1.6400  74.7069 0008405 254.6676 105.0853  1.00269820 24122"
      },
      "geometry": {
        "type": "Point",
        "coordinates": [
          -177.463409596181,
          1.5468135202582685
        ]
      }
    },
    {
      "type": "Feature",
      "properties": {
        "norad_id": 44299,
        "name": "COSMOS 2534 (758)",
        "group": "gnss",
        "lat": 45.000044126459386,
        "lon": -9.531221446281064,
        "alt_km": 19145.67375970073,
        "timestamp": "2025-12-04T21:36:16.116974+00:00",
        "meta_object_name": "COSMOS 2534 (758)",
        "meta_object_id": "2019-030A",
        "meta_epoch": "2025-12-04T10:51:29.869920",
        "meta_mean_motion": 2.1310196,
        "meta_eccentricity": 0.00090607,
        "meta_inclination": 64.3652,
        "meta_ra_of_asc_node": 199.1723,
        "meta_arg_of_pericenter": 283.5363,
        "meta_mean_anomaly": 221.3863,
        "meta_ephemeris_type": 0,
        "meta_classification_type": "U",
        "meta_norad_cat_id": 44299,
        "meta_element_set_no": 999,
        "meta_rev_at_epoch": 5077,
        "meta_bstar": 0,
        "meta_mean_motion_dot": 9.8e-07,
        "meta_mean_motion_ddot": 0,
        "tle_line1": "1 44299U 19030A   25338.45242905  .00000098  00000+0  00000+0 0  9998",
        "tle_line2": "2 44299  64.3652 199.1723 0009060 283.5363 221.3863  2.13101960 50770"
      },
      "geometry": {
        "type": "Point",
        "coordinates": [
          -9.531221446281064,
          45.000044126459386
        ]
      }
    },
    {
      "type": "Feature",
      "properties": {
        "norad_id": 44337,
        "name": "BEIDOU-3 IGSO-2 (C39)",
        "group": "gnss",
        "lat": -2.332557131064641,
        "lon": 158.9368221257096,
        "alt_km": 35929.94163051307,
        "timestamp": "2025-12-04T21:36:16.116986+00:00",
        "meta_object_name": "BEIDOU-3 IGSO-2 (C39)",
        "meta_object_id": "2019-035A",
        "meta_epoch": "2025-12-01T05:17:49.661952",
        "meta_mean_motion": 1.00274502,
        "meta_eccentricity": 0.00376064,
        "meta_inclination": 55.2223,
        "meta_ra_of_asc_node": 160.6035,
        "meta_arg_of_pericenter": 202.2564,
        "meta_mean_anomaly": 266.4761,
        "meta_ephemeris_type": 0,
        "meta_classification_type": "U",
        "meta_norad_cat_id": 44337,
        "meta_element_set_no": 999,
        "meta_rev_at_epoch": 2368,
        "meta_bstar": 0,
        "meta_mean_motion_dot": -2.5e-07,
        "meta_mean_motion_ddot": 0,
        "tle_line1": "1 44337U 19035A   25335.22071368 -.00000025  00000+0  00000+0 0  9992",
        "tle_line2": "2 44337  55.2223 160.6035 0037606 202.2564 266.4761  1.00274502 23688"
      },
      "geometry": {
        "type": "Point",
        "coordinates": [
          158.9368221257096,
          -2.332557131064641
        ]
      }
    },
    {
      "type": "Feature",
      "properties": {
        "norad_id": 44506,
        "name": "GPS BIII-2  (PRN 18)",
        "group": "gnss",
        "lat": 32.63559576917708,
        "lon": 132.96338286943592,
        "alt_km": 20099.207167180914,
        "timestamp": "2025-12-04T21:36:16.116998+00:00",
        "meta_object_name": "GPS BIII-2  (PRN 18)",
        "meta_object_id": "2019-056A",
        "meta_epoch": "2025-12-02T10:49:28.764768",
        "meta_mean_motion": 2.00565569,
        "meta_eccentricity": 0.00578163,
        "meta_inclination": 55.7251,
        "meta_ra_of_asc_node": 338.9617,
        "meta_arg_of_pericenter": 198.402,
        "meta_mean_anomaly": 332.9603,
        "meta_ephemeris_type": 0,
        "meta_classification_type": "U",
        "meta_norad_cat_id": 44506,
        "meta_element_set_no": 999,
        "meta_rev_at_epoch": 4612,
        "meta_bstar": 0,
        "meta_mean_motion_dot": -6.1e-07,
        "meta_mean_motion_ddot": 0,
        "tle_line1": "1 44506U 19056A   25336.45102737 -.00000061  00000+0  00000+0 0  9994",
        "tle_line2": "2 44506  55.7251 338.9617 0057816 198.4020 332.9603  2.00565569 46121"
      },
      "geometry": {
        "type": "Point",
        "coordinates": [
          132.96338286943592,
          32.63559576917708
        ]
      }
    },
    {
      "type": "Feature",
      "properties": {
        "norad_id": 44542,
        "name": "BEIDOU-3 M24 (C46)",
        "group": "gnss",
        "lat": 19.143287726517098,
        "lon": -156.30822268073334,
        "alt_km": 21499.209863728327,
        "timestamp": "2025-12-04T21:36:16.117009+00:00",
        "meta_object_name": "BEIDOU-3 M24 (C46)",
        "meta_object_id": "2019-061A",
        "meta_epoch": "2025-12-03T18:58:50.861280",
        "meta_mean_motion": 1.86229252,
        "meta_eccentricity": 0.00095721,
        "meta_inclination": 54.4001,
        "meta_ra_of_asc_node": 189.3183,
        "meta_arg_of_pericenter": 23.909,
        "meta_mean_anomaly": 336.2302,
        "meta_ephemeris_type": 0,
        "meta_classification_type": "U",
        "meta_norad_cat_id": 44542,
        "meta_element_set_no": 999,
        "meta_rev_at_epoch": 4215,
        "meta_bstar": 0,
        "meta_mean_motion_dot": 1.12e-06,
        "meta_mean_motion_ddot": 0,
        "tle_line1": "1 44542U 19061A   25337.79086645  .00000112  00000+0  00000+0 0  9993",
        "tle_line2": "2 44542  54.4001 189.3183 0009572  23.9090 336.2302  1.86229252 42152"
      },
      "geometry": {
        "type": "Point",
        "coordinates": [
          -156.30822268073334,
          19.143287726517098
        ]
      }
    },
    {
      "type": "Feature",
      "properties": {
        "norad_id": 44543,
        "name": "BEIDOU-3 M23 (C45)",
        "group": "gnss",
        "lat": -46.64949947707493,
        "lon": 139.87896264691875,
        "alt_km": 21532.62062164424,
        "timestamp": "2025-12-04T21:36:16.117020+00:00",
        "meta_object_name": "BEIDOU-3 M23 (C45)",
        "meta_object_id": "2019-061B",
        "meta_epoch": "2025-12-04T04:33:30.400416",
        "meta_mean_motion": 1.86227468,
        "meta_eccentricity": 0.00061181,
        "meta_inclination": 54.3989,
        "meta_ra_of_asc_node": 189.2733,
        "meta_arg_of_pericenter": 22.8981,
        "meta_mean_anomaly": 157.6124,
        "meta_ephemeris_type": 0,
        "meta_classification_type": "U",
        "meta_norad_cat_id": 44543,
        "meta_element_set_no": 999,
        "meta_rev_at_epoch": 4216,
        "meta_bstar": 0,
        "meta_mean_motion_dot": 1.08e-06,
        "meta_mean_motion_ddot": 0,
        "tle_line1": "1 44543U 19061B   25338.18993519  .00000108  00000+0  00000+0 0  9990",
        "tle_line2": "2 44543  54.3989 189.2733 0006118  22.8981 157.6124  1.86227468 42162"
      },
      "geometry": {
        "type": "Point",
        "coordinates": [
          139.87896264691875,
          -46.64949947707493
        ]
      }
    },
    {
      "type": "Feature",
      "properties": {
        "norad_id": 44624,
        "name": "EUTELSAT 5 WEST B (EGNOS/PRN 121)",
        "group": "gnss",
        "lat": 0.08567087557848135,
        "lon": 33.04644746570904,
        "alt_km": 35798.00297308053,
        "timestamp": "2025-12-04T21:36:16.117031+00:00",
        "meta_object_name": "EUTELSAT 5 WEST B (EGNOS/PRN 121)",
        "meta_object_id": "2019-067A",
        "meta_epoch": "2025-12-04T13:42:12.244320",
        "meta_mean_motion": 1.00270033,
        "meta_eccentricity": 0.00035672,
        "meta_inclination": 0.0692,
        "meta_ra_of_asc_node": 330.6082,
        "meta_arg_of_pericenter": 283.2398,
        "meta_mean_anomaly": 20.3528,
        "meta_ephemeris_type": 0,
        "meta_classification_type": "U",
        "meta_norad_cat_id": 44624,
        "meta_element_set_no": 999,
        "meta_rev_at_epoch": 2248,
        "meta_bstar": 0,
        "meta_mean_motion_dot": -2.8e-07,
        "meta_mean_motion_ddot": 0,
        "tle_line1": "1 44624U 19067A   25338.57097505 -.00000028  00000+0  00000+0 0  9991",
        "tle_line2": "2 44624   0.0692 330.6082 0003567 283.2398  20.3528  1.00270033 22489"
      },
      "geometry": {
        "type": "Point",
        "coordinates": [
          33.04644746570904,
          0.08567087557848135
        ]
      }
    }
  ]
}